ORBCOMM FM05            
1 25117U 97084F   25163.31121125  .00001133  00000+0  35595-3 0  9994
2 25117  45.0163  31.4659 0001687 176.5199 183.5664 14.45931486440843
ORBCOMM FM06            
1 25118U 97084G   25163.05581817  .00000975  00000+0  31113-3 0  9999
2 25118  45.0156  32.4355 0000705 156.7931 352.0788 14.46063206440807
ORBCOMM FM07            
1 25119U 97084H   25163.31698492  .00001042  00000+0  32980-3 0  9996
2 25119  45.0152  31.9501 0002520 173.0269 187.0618 14.46060109440834
ORBCOMM FM03            
1 25158U 98007B   25163.87085754  .00000829  00000+0  33670-3 0  9996
2 25158 107.9651 126.7312 0046478 257.6411 101.9524 14.34500136423568
ORBCOMM FM04            
1 25159U 98007C   25163.85580561  .00000697  00000+0  28974-3 0  9995
2 25159 107.9640 129.9189 0042224 255.2444 104.4015 14.34748386423710
ORBCOMM FM17            
1 25413U 98046A   25163.45581774  .00000521  00000+0  23018-3 0  9994
2 25413  44.9947 279.9357 0004297 197.6928 162.3770 14.35090005402661
ORBCOMM FM18            
1 25414U 98046B   25163.14149640  .00000558  00000+0  22683-3 0  9990
2 25414  44.9913 198.9517 0007102 260.0305  99.9742 14.38546752403691
ORBCOMM FM19            
1 25415U 98046C   25163.16526363  .00000553  00000+0  22606-3 0  9994
2 25415  44.9925 200.8301 0005864 256.5307 145.8359 14.38355062403680
